[{"OBJECT_NAME":"ONEWEB-0714","OBJECT_ID":"2022-166AR","EPOCH":"2026-03-09T22:27:53.159616","MEAN_MOTION":13.21824451,"ECCENTRICITY":0.00014639,"INCLINATION":87.9164,"RA_OF_ASC_NODE":263.772,"ARG_OF_PERICENTER":99.0677,"MEAN_ANOMALY":261.0623,"EPHEMERIS_TYPE":0,"CLASSIFICATION_TYPE":"U","NORAD_CAT_ID":54681,"ELEMENT_SET_NO":999,"REV_AT_EPOCH":15842,"BSTAR":9.5847636e-5,"MEAN_MOTION_DOT":5.3e-7,"MEAN_MOTION_DDOT":0},{"OBJECT_NAME":"DELTA 1 DEB","OBJECT_ID":"1975-052CM","EPOCH":"2026-03-09T23:51:28.608768","MEAN_MOTION":13.31415563,"ECCENTRICITY":0.00738465,"INCLINATION":99.8139,"RA_OF_ASC_NODE":144.9341,"ARG_OF_PERICENTER":227.2579,"MEAN_ANOMALY":306.1508,"EPHEMERIS_TYPE":0,"CLASSIFICATION_TYPE":"U","NORAD_CAT_ID":21367,"ELEMENT_SET_NO":999,"REV_AT_EPOCH":68958,"BSTAR":0.00021272808,"MEAN_MOTION_DOT":6.1e-7,"MEAN_MOTION_DDOT":0}]
